ALOS-4 (DAICHI-4)       
1 60182U 24123A   24198.55029302  .00003986  00000+0  53919-3 0  9994
2 60182  97.8750 294.8048 0001972 103.2131 256.9301 14.79560556  2286
